{
  "type": "FeatureCollection",
  "features": [
    {
      "type": "Feature",
      "properties": {
        "norad_id": 34846,
        "name": "COSMOS 2251 DEB",
        "group": "cosmos-2251-debris",
        "lat": -28.267988659058393,
        "lon": 90.40211175264885,
        "alt_km": 749.026813073101,
        "timestamp": "2025-12-12T20:43:07.431105+00:00",
        "meta_object_name": "COSMOS 2251 DEB",
        "meta_object_id": "1993-036ABQ",
        "meta_epoch": "2025-12-12T04:49:15.669984",
        "meta_mean_motion": 14.47210999,
        "meta_eccentricity": 0.0026081,
        "meta_inclination": 74.0306,
        "meta_ra_of_asc_node": 262.7827,
        "meta_arg_of_pericenter": 329.2642,
        "meta_mean_anomaly": 30.6988,
        "meta_ephemeris_type": 0,
        "meta_classification_type": "U",
        "meta_norad_cat_id": 34846,
        "meta_element_set_no": 999,
        "meta_rev_at_epoch": 87396,
        "meta_bstar": 0.0014230524,
        "meta_mean_motion_dot": 5.197e-05,
        "meta_mean_motion_ddot": 0,
        "tle_line1": "1 34846U 93036ABQ 25346.20087581  .00005197  00000+0  14231-2 0  9991",
        "tle_line2": "2 34846  74.0306 262.7827 0026081 329.2642  30.6988 14.47210999873969"
      },
      "geometry": {
        "type": "Point",
        "coordinates": [
          90.40211175264885,
          -28.267988659058393
        ]
      }
    },
    {
      "type": "Feature",
      "properties": {
        "norad_id": 34852,
        "name": "COSMOS 2251 DEB",
        "group": "cosmos-2251-debris",
        "lat": -73.9915156067772,
        "lon": 176.44583487795109,
        "alt_km": 776.3600911620233,
        "timestamp": "2025-12-12T20:43:07.431116+00:00",
        "meta_object_name": "COSMOS 2251 DEB",
        "meta_object_id": "1993-036ABW",
        "meta_epoch": "2025-12-12T04:25:24.036672",
        "meta_mean_motion": 14.3700411,
        "meta_eccentricity": 0.00161904,
        "meta_inclination": 74.033,
        "meta_ra_of_asc_node": 263.9932,
        "meta_arg_of_pericenter": 7.4098,
        "meta_mean_anomaly": 352.7291,
        "meta_ephemeris_type": 0,
        "meta_classification_type": "U",
        "meta_norad_cat_id": 34852,
        "meta_element_set_no": 999,
        "meta_rev_at_epoch": 87526,
        "meta_bstar": 0.00018800574,
        "meta_mean_motion_dot": 5.32e-06,
        "meta_mean_motion_ddot": 0,
        "tle_line1": "1 34852U 93036ABW 25346.18430598  .00000532  00000+0  18801-3 0  9991",
        "tle_line2": "2 34852  74.0330 263.9932 0016190   7.4098 352.7291 14.37004110875268"
      },
      "geometry": {
        "type": "Point",
        "coordinates": [
          176.44583487795109,
          -73.9915156067772
        ]
      }
    },
    {
      "type": "Feature",
      "properties": {
        "norad_id": 34854,
        "name": "COSMOS 2251 DEB",
        "group": "cosmos-2251-debris",
        "lat": -11.361821641878228,
        "lon": -18.36014112833318,
        "alt_km": 634.2523499009058,
        "timestamp": "2025-12-12T20:43:07.431127+00:00",
        "meta_object_name": "COSMOS 2251 DEB",
        "meta_object_id": "1993-036ABY",
        "meta_epoch": "2025-12-12T05:12:45.104544",
        "meta_mean_motion": 14.76618025,
        "meta_eccentricity": 0.00661594,
        "meta_inclination": 74.0288,
        "meta_ra_of_asc_node": 159.6067,
        "meta_arg_of_pericenter": 271.3934,
        "meta_mean_anomaly": 87.9662,
        "meta_ephemeris_type": 0,
        "meta_classification_type": "U",
        "meta_norad_cat_id": 34854,
        "meta_element_set_no": 999,
        "meta_rev_at_epoch": 71874,
        "meta_bstar": 0.0010879057,
        "meta_mean_motion_dot": 7.852e-05,
        "meta_mean_motion_ddot": 0,
        "tle_line1": "1 34854U 93036ABY 25346.21718871  .00007852  00000+0  10879-2 0  9998",
        "tle_line2": "2 34854  74.0288 159.6067 0066159 271.3934  87.9662 14.76618025718740"
      },
      "geometry": {
        "type": "Point",
        "coordinates": [
          -18.36014112833318,
          -11.361821641878228
        ]
      }
    },
    {
      "type": "Feature",
      "properties": {
        "norad_id": 34856,
        "name": "COSMOS 2251 DEB",
        "group": "cosmos-2251-debris",
        "lat": -71.42292021582433,
        "lon": 25.953487814768735,
        "alt_km": 542.824236516979,
        "timestamp": "2025-12-12T20:43:07.431137+00:00",
        "meta_object_name": "COSMOS 2251 DEB",
        "meta_object_id": "1993-036ACA",
        "meta_epoch": "2025-12-11T13:15:05.666688",
        "meta_mean_motion": 15.05962388,
        "meta_eccentricity": 0.00329642,
        "meta_inclination": 73.9966,
        "meta_ra_of_asc_node": 87.2929,
        "meta_arg_of_pericenter": 225.0346,
        "meta_mean_anomaly": 148.7122,
        "meta_ephemeris_type": 0,
        "meta_classification_type": "U",
        "meta_norad_cat_id": 34856,
        "meta_element_set_no": 999,
        "meta_rev_at_epoch": 89094,
        "meta_bstar": 0.0030960777,
        "meta_mean_motion_dot": 0.00045898,
        "meta_mean_motion_ddot": 0,
        "tle_line1": "1 34856U 93036ACA 25345.55214892  .00045898  00000+0  30961-2 0  9996",
        "tle_line2": "2 34856  73.9966  87.2929 0032964 225.0346 148.7122 15.05962388890943"
      },
      "geometry": {
        "type": "Point",
        "coordinates": [
          25.953487814768735,
          -71.42292021582433
        ]
      }
    },
    {
      "type": "Feature",
      "properties": {
        "norad_id": 34857,
        "name": "COSMOS 2251 DEB",
        "group": "cosmos-2251-debris",
        "lat": -73.94744035896652,
        "lon": 11.600356435687765,
        "alt_km": 666.7314461733667,
        "timestamp": "2025-12-12T20:43:07.431148+00:00",
        "meta_object_name": "COSMOS 2251 DEB",
        "meta_object_id": "1993-036ACB",
        "meta_epoch": "2025-12-10T10:09:42.100416",
        "meta_mean_motion": 14.5885085,
        "meta_eccentricity": 0.00659222,
        "meta_inclination": 74.0153,
        "meta_ra_of_asc_node": 111.2471,
        "meta_arg_of_pericenter": 236.0948,
        "meta_mean_anomaly": 183.224,
        "meta_ephemeris_type": 0,
        "meta_classification_type": "U",
        "meta_norad_cat_id": 34857,
        "meta_element_set_no": 999,
        "meta_rev_at_epoch": 87867,
        "meta_bstar": 0.001891387,
        "meta_mean_motion_dot": 9.104e-05,
        "meta_mean_motion_ddot": 0,
        "tle_line1": "1 34857U 93036ACB 25344.42340394  .00009104  00000+0  18914-2 0  9993",
        "tle_line2": "2 34857  74.0153 111.2471 0065922 236.0948 183.2240 14.58850850878672"
      },
      "geometry": {
        "type": "Point",
        "coordinates": [
          11.600356435687765,
          -73.94744035896652
        ]
      }
    },
    {
      "type": "Feature",
      "properties": {
        "norad_id": 34859,
        "name": "COSMOS 2251 DEB",
        "group": "cosmos-2251-debris",
        "lat": -60.707918623623485,
        "lon": -169.90330241962536,
        "alt_km": 528.54084304547,
        "timestamp": "2025-12-12T20:43:07.431159+00:00",
        "meta_object_name": "COSMOS 2251 DEB",
        "meta_object_id": "1993-036ACD",
        "meta_epoch": "2025-12-12T00:52:56.324928",
        "meta_mean_motion": 15.14557844,
        "meta_eccentricity": 0.0002471,
        "meta_inclination": 74.0312,
        "meta_ra_of_asc_node": 341.1213,
        "meta_arg_of_pericenter": 336.6743,
        "meta_mean_anomaly": 83.5787,
        "meta_ephemeris_type": 0,
        "meta_classification_type": "U",
        "meta_norad_cat_id": 34859,
        "meta_element_set_no": 999,
        "meta_rev_at_epoch": 88348,
        "meta_bstar": 0.0060515,
        "meta_mean_motion_dot": 0.0011338,
        "meta_mean_motion_ddot": 0,
        "tle_line1": "1 34859U 93036ACD 25346.03676302  .00113380  00000+0  60515-2 0  9991",
        "tle_line2": "2 34859  74.0312 341.1213 0002471 336.6743  83.5787 15.14557844883482"
      },
      "geometry": {
        "type": "Point",
        "coordinates": [
          -169.90330241962536,
          -60.707918623623485
        ]
      }
    },
    {
      "type": "Feature",
      "properties": {
        "norad_id": 34861,
        "name": "COSMOS 2251 DEB",
        "group": "cosmos-2251-debris",
        "lat": 31.840396999462666,
        "lon": -139.65274544716846,
        "alt_km": 557.5345559957514,
        "timestamp": "2025-12-12T20:43:07.431170+00:00",
        "meta_object_name": "COSMOS 2251 DEB",
        "meta_object_id": "1993-036ACF",
        "meta_epoch": "2025-12-12T05:56:14.374176",
        "meta_mean_motion": 15.02536962,
        "meta_eccentricity": 0.00070938,
        "meta_inclination": 74.0183,
        "meta_ra_of_asc_node": 51.8567,
        "meta_arg_of_pericenter": 49.0042,
        "meta_mean_anomaly": 7.453,
        "meta_ephemeris_type": 0,
        "meta_classification_type": "U",
        "meta_norad_cat_id": 34861,
        "meta_element_set_no": 999,
        "meta_rev_at_epoch": 88085,
        "meta_bstar": 0.0035670942,
        "meta_mean_motion_dot": 0.00047736,
        "meta_mean_motion_ddot": 0,
        "tle_line1": "1 34861U 93036ACF 25346.24738859  .00047736  00000+0  35671-2 0  9999",
        "tle_line2": "2 34861  74.0183  51.8567 0007093  49.0042   7.4530 15.02536962880854"
      },
      "geometry": {
        "type": "Point",
        "coordinates": [
          -139.65274544716846,
          31.840396999462666
        ]
      }
    }
  ]
}